{
  "type": "FeatureCollection",
  "features": [
    {
      "type": "Feature",
      "properties": {
        "norad_id": 46995,
        "name": "FENGYUN 1C DEB",
        "group": "fengyun-1c-debris",
        "lat": -77.55613937132637,
        "lon": -151.57638070620783,
        "alt_km": 1070.4941757409088,
        "timestamp": "2025-12-15T22:44:29.218835+00:00",
        "meta_object_name": "FENGYUN 1C DEB",
        "meta_object_id": "1999-025EZV",
        "meta_epoch": "2025-12-11T04:54:47.403648",
        "meta_mean_motion": 13.86328831,
        "meta_eccentricity": 0.01903824,
        "meta_inclination": 98.5959,
        "meta_ra_of_asc_node": 67.3353,
        "meta_arg_of_pericenter": 122.4344,
        "meta_mean_anomaly": 239.5386,
        "meta_ephemeris_type": 0,
        "meta_classification_type": "U",
        "meta_norad_cat_id": 46995,
        "meta_element_set_no": 999,
        "meta_rev_at_epoch": 60447,
        "meta_bstar": 0.0035321637,
        "meta_mean_motion_dot": 4.676e-05,
        "meta_mean_motion_ddot": 0,
        "tle_line1": "1 46995U 99025EZV 25345.20471532  .00004676  00000+0  35322-2 0  9990",
        "tle_line2": "2 46995  98.5959  67.3353 0190382 122.4344 239.5386 13.86328831604470"
      },
      "geometry": {
        "type": "Point",
        "coordinates": [
          -151.57638070620783,
          -77.55613937132637
        ]
      }
    },
    {
      "type": "Feature",
      "properties": {
        "norad_id": 46997,
        "name": "FENGYUN 1C DEB",
        "group": "fengyun-1c-debris",
        "lat": -17.22794335884441,
        "lon": 32.90065430101698,
        "alt_km": 786.2384433256611,
        "timestamp": "2025-12-15T22:44:29.218845+00:00",
        "meta_object_name": "FENGYUN 1C DEB",
        "meta_object_id": "1999-025EZX",
        "meta_epoch": "2025-12-14T20:44:05.032032",
        "meta_mean_motion": 14.28011803,
        "meta_eccentricity": 0.00246638,
        "meta_inclination": 98.5587,
        "meta_ra_of_asc_node": 29.1623,
        "meta_arg_of_pericenter": 329.7037,
        "meta_mean_anomaly": 205.3871,
        "meta_ephemeris_type": 0,
        "meta_classification_type": "U",
        "meta_norad_cat_id": 46997,
        "meta_element_set_no": 999,
        "meta_rev_at_epoch": 62481,
        "meta_bstar": 0.00094694744,
        "meta_mean_motion_dot": 2.314e-05,
        "meta_mean_motion_ddot": 0,
        "tle_line1": "1 46997U 99025EZX 25348.86394713  .00002314  00000+0  94695-3 0  9998",
        "tle_line2": "2 46997  98.5587  29.1623 0024663 329.7037 205.3871 14.28011803624819"
      },
      "geometry": {
        "type": "Point",
        "coordinates": [
          32.90065430101698,
          -17.22794335884441
        ]
      }
    },
    {
      "type": "Feature",
      "properties": {
        "norad_id": 47001,
        "name": "FENGYUN 1C DEB",
        "group": "fengyun-1c-debris",
        "lat": 51.14618264005762,
        "lon": -120.00551891952495,
        "alt_km": 756.8712687325651,
        "timestamp": "2025-12-15T22:44:29.218855+00:00",
        "meta_object_name": "FENGYUN 1C DEB",
        "meta_object_id": "1999-025FAB",
        "meta_epoch": "2025-12-11T09:38:44.993760",
        "meta_mean_motion": 14.38447504,
        "meta_eccentricity": 0.00517509,
        "meta_inclination": 99.3059,
        "meta_ra_of_asc_node": 43.327,
        "meta_arg_of_pericenter": 53.4602,
        "meta_mean_anomaly": 307.1332,
        "meta_ephemeris_type": 0,
        "meta_classification_type": "U",
        "meta_norad_cat_id": 47001,
        "meta_element_set_no": 999,
        "meta_rev_at_epoch": 73895,
        "meta_bstar": 0.0027920428,
        "meta_mean_motion_dot": 8.616e-05,
        "meta_mean_motion_ddot": 0,
        "tle_line1": "1 47001U 99025FAB 25345.40190965  .00008616  00000+0  27920-2 0  9992",
        "tle_line2": "2 47001  99.3059  43.3270 0051750  53.4602 307.1332 14.38447504738957"
      },
      "geometry": {
        "type": "Point",
        "coordinates": [
          -120.00551891952495,
          51.14618264005762
        ]
      }
    },
    {
      "type": "Feature",
      "properties": {
        "norad_id": 47005,
        "name": "FENGYUN 1C DEB",
        "group": "fengyun-1c-debris",
        "lat": -65.5972996560814,
        "lon": -122.81667924755679,
        "alt_km": 818.3858395685083,
        "timestamp": "2025-12-15T22:44:29.218865+00:00",
        "meta_object_name": "FENGYUN 1C DEB",
        "meta_object_id": "1999-025FAF",
        "meta_epoch": "2025-12-03T11:49:12.815616",
        "meta_mean_motion": 14.10913141,
        "meta_eccentricity": 0.00635736,
        "meta_inclination": 99.6019,
        "meta_ra_of_asc_node": 65.7889,
        "meta_arg_of_pericenter": 267.3996,
        "meta_mean_anomaly": 108.1197,
        "meta_ephemeris_type": 0,
        "meta_classification_type": "U",
        "meta_norad_cat_id": 47005,
        "meta_element_set_no": 999,
        "meta_rev_at_epoch": 82637,
        "meta_bstar": 0.0032335345,
        "meta_mean_motion_dot": 5.865e-05,
        "meta_mean_motion_ddot": 0,
        "tle_line1": "1 47005U 99025FAF 25337.49250944  .00005865  00000+0  32335-2 0  9999",
        "tle_line2": "2 47005  99.6019  65.7889 0063573 267.3996 108.1197 14.10913141826379"
      },
      "geometry": {
        "type": "Point",
        "coordinates": [
          -122.81667924755679,
          -65.5972996560814
        ]
      }
    },
    {
      "type": "Feature",
      "properties": {
        "norad_id": 47007,
        "name": "FENGYUN 1C DEB",
        "group": "fengyun-1c-debris",
        "lat": -39.156274229095175,
        "lon": 24.8399819321447,
        "alt_km": 1081.1724789258415,
        "timestamp": "2025-12-15T22:44:29.218875+00:00",
        "meta_object_name": "FENGYUN 1C DEB",
        "meta_object_id": "1999-025FAH",
        "meta_epoch": "2025-12-12T19:48:14.767488",
        "meta_mean_motion": 13.97221277,
        "meta_eccentricity": 0.02364818,
        "meta_inclination": 98.2071,
        "meta_ra_of_asc_node": 208.7965,
        "meta_arg_of_pericenter": 53.4712,
        "meta_mean_anomaly": 308.7978,
        "meta_ephemeris_type": 0,
        "meta_classification_type": "U",
        "meta_norad_cat_id": 47007,
        "meta_element_set_no": 999,
        "meta_rev_at_epoch": 78850,
        "meta_bstar": 0.0035002568,
        "meta_mean_motion_dot": 6.179e-05,
        "meta_mean_motion_ddot": 0,
        "tle_line1": "1 47007U 99025FAH 25346.82517092  .00006179  00000+0  35003-2 0  9992",
        "tle_line2": "2 47007  98.2071 208.7965 0236481  53.4712 308.7978 13.97221277788501"
      },
      "geometry": {
        "type": "Point",
        "coordinates": [
          24.8399819321447,
          -39.156274229095175
        ]
      }
    },
    {
      "type": "Feature",
      "properties": {
        "norad_id": 47009,
        "name": "FENGYUN 1C DEB",
        "group": "fengyun-1c-debris",
        "lat": -11.663758655502107,
        "lon": 151.5182046633762,
        "alt_km": 983.7423861184443,
        "timestamp": "2025-12-15T22:44:29.218906+00:00",
        "meta_object_name": "FENGYUN 1C DEB",
        "meta_object_id": "1999-025FAK",
        "meta_epoch": "2025-12-02T05:09:31.123584",
        "meta_mean_motion": 13.37303446,
        "meta_eccentricity": 0.0352227,
        "meta_inclination": 98.9376,
        "meta_ra_of_asc_node": 321.2954,
        "meta_arg_of_pericenter": 285.6992,
        "meta_mean_anomaly": 70.555,
        "meta_ephemeris_type": 0,
        "meta_classification_type": "U",
        "meta_norad_cat_id": 47009,
        "meta_element_set_no": 999,
        "meta_rev_at_epoch": 58668,
        "meta_bstar": 0.00057132,
        "meta_mean_motion_dot": 3.87e-06,
        "meta_mean_motion_ddot": 0,
        "tle_line1": "1 47009U 99025FAK 25336.21494356  .00000387  00000+0  57132-3 0  9996",
        "tle_line2": "2 47009  98.9376 321.2954 0352227 285.6992  70.5550 13.37303446586681"
      },
      "geometry": {
        "type": "Point",
        "coordinates": [
          151.5182046633762,
          -11.663758655502107
        ]
      }
    },
    {
      "type": "Feature",
      "properties": {
        "norad_id": 47012,
        "name": "FENGYUN 1C DEB",
        "group": "fengyun-1c-debris",
        "lat": -26.203958358512896,
        "lon": -127.47236664986926,
        "alt_km": 956.6824365100229,
        "timestamp": "2025-12-15T22:44:29.218917+00:00",
        "meta_object_name": "FENGYUN 1C DEB",
        "meta_object_id": "1999-025FAN",
        "meta_epoch": "2025-12-05T22:22:36.481152",
        "meta_mean_motion": 13.77908149,
        "meta_eccentricity": 0.01638485,
        "meta_inclination": 98.755,
        "meta_ra_of_asc_node": 218.9381,
        "meta_arg_of_pericenter": 81.7177,
        "meta_mean_anomaly": 280.2518,
        "meta_ephemeris_type": 0,
        "meta_classification_type": "U",
        "meta_norad_cat_id": 47012,
        "meta_element_set_no": 999,
        "meta_rev_at_epoch": 54479,
        "meta_bstar": 0.00065808903,
        "meta_mean_motion_dot": 6.91e-06,
        "meta_mean_motion_ddot": 0,
        "tle_line1": "1 47012U 99025FAN 25339.93236668  .00000691  00000+0  65809-3 0  9990",
        "tle_line2": "2 47012  98.7550 218.9381 0163848  81.7177 280.2518 13.77908149544797"
      },
      "geometry": {
        "type": "Point",
        "coordinates": [
          -127.47236664986926,
          -26.203958358512896
        ]
      }
    }
  ]
}